CCSDS_OMM_VERS = 2.0
CREATION_DATE  = 
ORIGINATOR     = 

OBJECT_NAME    = SL-16 R/B
OBJECT_ID      = 1993-016B
CENTER_NAME    = EARTH
REF_FRAME      = TEME
TIME_SYSTEM    = UTC
MEAN_ELEMENT_THEORY = SGP/SGP4

EPOCH          = 2026-01-18T22:51:25.589664
MEAN_MOTION    = 14.15293515
ECCENTRICITY   = .00089102
INCLINATION    = 71.0089
RA_OF_ASC_NODE = 319.6461
ARG_OF_PERICENTER = 27.8282
MEAN_ANOMALY   = 332.3315

EPHEMERIS_TYPE = 0
CLASSIFICATION_TYPE = U
NORAD_CAT_ID   = 22566
ELEMENT_SET_NO = 999
REV_AT_EPOCH   = 69513
BSTAR          = .45999339E-4
MEAN_MOTION_DOT = .42E-6
MEAN_MOTION_DDOT = 0

CCSDS_OMM_VERS = 2.0
CREATION_DATE  = 
ORIGINATOR     = 

OBJECT_NAME    = COSMOS 2242
OBJECT_ID      = 1993-024A
CENTER_NAME    = EARTH
REF_FRAME      = TEME
TIME_SYSTEM    = UTC
MEAN_ELEMENT_THEORY = SGP/SGP4

EPOCH          = 2026-01-18T21:16:58.385568
MEAN_MOTION    = 14.96287729
ECCENTRICITY   = .00178974
INCLINATION    = 82.5210
RA_OF_ASC_NODE = 314.3385
ARG_OF_PERICENTER = 110.0704
MEAN_ANOMALY   = 250.2446

EPHEMERIS_TYPE = 0
CLASSIFICATION_TYPE = U
NORAD_CAT_ID   = 22626
ELEMENT_SET_NO = 999
REV_AT_EPOCH   = 77294
BSTAR          = .16593155E-3
MEAN_MOTION_DOT = .1906E-4
MEAN_MOTION_DDOT = 0

CCSDS_OMM_VERS = 2.0
CREATION_DATE  = 
ORIGINATOR     = 

OBJECT_NAME    = SL-16 R/B
OBJECT_ID      = 1993-059B
CENTER_NAME    = EARTH
REF_FRAME      = TEME
TIME_SYSTEM    = UTC
MEAN_ELEMENT_THEORY = SGP/SGP4

EPOCH          = 2026-01-18T17:12:29.315808
MEAN_MOTION    = 14.17222605
ECCENTRICITY   = .00194987
INCLINATION    = 70.9910
RA_OF_ASC_NODE = 116.5126
ARG_OF_PERICENTER = 284.5045
MEAN_ANOMALY   = 75.3916

EPHEMERIS_TYPE = 0
CLASSIFICATION_TYPE = U
NORAD_CAT_ID   = 22803
ELEMENT_SET_NO = 999
REV_AT_EPOCH   = 67245
BSTAR          = .86330115E-4
MEAN_MOTION_DOT = .126E-5
MEAN_MOTION_DDOT = 0

CCSDS_OMM_VERS = 2.0
CREATION_DATE  = 
ORIGINATOR     = 

OBJECT_NAME    = ARIANE 40 R/B
OBJECT_ID      = 1993-061H
CENTER_NAME    = EARTH
REF_FRAME      = TEME
TIME_SYSTEM    = UTC
MEAN_ELEMENT_THEORY = SGP/SGP4

EPOCH          = 2026-01-18T21:48:54.965664
MEAN_MOTION    = 14.32827387
ECCENTRICITY   = .00117199
INCLINATION    = 98.5018
RA_OF_ASC_NODE = 88.7531
ARG_OF_PERICENTER = 74.1915
MEAN_ANOMALY   = 286.0561

EPHEMERIS_TYPE = 0
CLASSIFICATION_TYPE = U
NORAD_CAT_ID   = 22830
ELEMENT_SET_NO = 999
REV_AT_EPOCH   = 68697
BSTAR          = .83990795E-4
MEAN_MOTION_DOT = .186E-5
MEAN_MOTION_DDOT = 0

CCSDS_OMM_VERS = 2.0
CREATION_DATE  = 
ORIGINATOR     = 

OBJECT_NAME    = COSMOS 2278
OBJECT_ID      = 1994-023A
CENTER_NAME    = EARTH
REF_FRAME      = TEME
TIME_SYSTEM    = UTC
MEAN_ELEMENT_THEORY = SGP/SGP4

EPOCH          = 2026-01-18T22:47:04.227936
MEAN_MOTION    = 14.14365496
ECCENTRICITY   = .00064696
INCLINATION    = 71.0545
RA_OF_ASC_NODE = 279.1632
ARG_OF_PERICENTER = 109.6186
MEAN_ANOMALY   = 250.5636

EPHEMERIS_TYPE = 0
CLASSIFICATION_TYPE = U
NORAD_CAT_ID   = 23087
ELEMENT_SET_NO = 999
REV_AT_EPOCH   = 63777
BSTAR          = .52886149E-4
MEAN_MOTION_DOT = .54E-6
MEAN_MOTION_DDOT = 0

CCSDS_OMM_VERS = 2.0
CREATION_DATE  = 
ORIGINATOR     = 

OBJECT_NAME    = SL-16 R/B
OBJECT_ID      = 1994-023B
CENTER_NAME    = EARTH
REF_FRAME      = TEME
TIME_SYSTEM    = UTC
MEAN_ELEMENT_THEORY = SGP/SGP4

EPOCH          = 2026-01-18T21:02:53.753856
MEAN_MOTION    = 14.15006560
ECCENTRICITY   = .0003647
INCLINATION    = 70.9995
RA_OF_ASC_NODE = 175.4963
ARG_OF_PERICENTER = 333.3042
MEAN_ANOMALY   = 26.7893

EPHEMERIS_TYPE = 0
CLASSIFICATION_TYPE = U
NORAD_CAT_ID   = 23088
ELEMENT_SET_NO = 999
REV_AT_EPOCH   = 63904
BSTAR          = .39231742E-4
MEAN_MOTION_DOT = .28E-6
MEAN_MOTION_DDOT = 0

CCSDS_OMM_VERS = 2.0
CREATION_DATE  = 
ORIGINATOR     = 

OBJECT_NAME    = SL-16 R/B
OBJECT_ID      = 1994-074B
CENTER_NAME    = EARTH
REF_FRAME      = TEME
TIME_SYSTEM    = UTC
MEAN_ELEMENT_THEORY = SGP/SGP4

EPOCH          = 2026-01-18T16:24:47.747808
MEAN_MOTION    = 14.79336878
ECCENTRICITY   = .00073298
INCLINATION    = 97.7167
RA_OF_ASC_NODE = 51.5140
ARG_OF_PERICENTER = 35.0060
MEAN_ANOMALY   = 78.3228

EPHEMERIS_TYPE = 0
CLASSIFICATION_TYPE = U
NORAD_CAT_ID   = 23343
ELEMENT_SET_NO = 999
REV_AT_EPOCH   = 67985
BSTAR          = .63704407E-4
MEAN_MOTION_DOT = .425E-5
MEAN_MOTION_DDOT = 0

CCSDS_OMM_VERS = 2.0
CREATION_DATE  = 
ORIGINATOR     = 

OBJECT_NAME    = SL-16 R/B
OBJECT_ID      = 1994-077B
CENTER_NAME    = EARTH
REF_FRAME      = TEME
TIME_SYSTEM    = UTC
MEAN_ELEMENT_THEORY = SGP/SGP4

EPOCH          = 2026-01-18T22:46:11.066880
MEAN_MOTION    = 14.15557156
ECCENTRICITY   = .00048232
INCLINATION    = 70.9834
RA_OF_ASC_NODE = 97.1373
ARG_OF_PERICENTER = 255.4777
MEAN_ANOMALY   = 104.5811

EPHEMERIS_TYPE = 0
CLASSIFICATION_TYPE = U
NORAD_CAT_ID   = 23405
ELEMENT_SET_NO = 999
REV_AT_EPOCH   = 60919
BSTAR          = .95183166E-4
MEAN_MOTION_DOT = .138E-5
MEAN_MOTION_DDOT = 0

CCSDS_OMM_VERS = 2.0
CREATION_DATE  = 
ORIGINATOR     = 

OBJECT_NAME    = ARIANE 40+ R/B
OBJECT_ID      = 1995-021B
CENTER_NAME    = EARTH
REF_FRAME      = TEME
TIME_SYSTEM    = UTC
MEAN_ELEMENT_THEORY = SGP/SGP4

EPOCH          = 2026-01-18T22:33:30.295872
MEAN_MOTION    = 14.39726829
ECCENTRICITY   = .00056968
INCLINATION    = 98.4596
RA_OF_ASC_NODE = 91.0714
ARG_OF_PERICENTER = 294.1782
MEAN_ANOMALY   = 239.0576

EPHEMERIS_TYPE = 0
CLASSIFICATION_TYPE = U
NORAD_CAT_ID   = 23561
ELEMENT_SET_NO = 999
REV_AT_EPOCH   = 61208
BSTAR          = .9968661E-4
MEAN_MOTION_DOT = .269E-5
MEAN_MOTION_DDOT = 0

CCSDS_OMM_VERS = 2.0
CREATION_DATE  = 
ORIGINATOR     = 

OBJECT_NAME    = SL-16 R/B
OBJECT_ID      = 1995-058B
CENTER_NAME    = EARTH
REF_FRAME      = TEME
TIME_SYSTEM    = UTC
MEAN_ELEMENT_THEORY = SGP/SGP4

EPOCH          = 2026-01-18T22:52:41.183616
MEAN_MOTION    = 14.15489699
ECCENTRICITY   = .00134689
INCLINATION    = 71.0222
RA_OF_ASC_NODE = 284.6763
ARG_OF_PERICENTER = 205.8216
MEAN_ANOMALY   = 154.2236

EPHEMERIS_TYPE = 0
CLASSIFICATION_TYPE = U
NORAD_CAT_ID   = 23705
ELEMENT_SET_NO = 999
REV_AT_EPOCH   = 56081
BSTAR          = -.59191839E-4
MEAN_MOTION_DOT = -.163E-5
MEAN_MOTION_DDOT = 0

CCSDS_OMM_VERS = 2.0
CREATION_DATE  = 
ORIGINATOR     = 

OBJECT_NAME    = SL-16 R/B
OBJECT_ID      = 1996-051B
CENTER_NAME    = EARTH
REF_FRAME      = TEME
TIME_SYSTEM    = UTC
MEAN_ELEMENT_THEORY = SGP/SGP4

EPOCH          = 2026-01-18T22:53:01.649184
MEAN_MOTION    = 14.12401452
ECCENTRICITY   = .00188275
INCLINATION    = 70.7589
RA_OF_ASC_NODE = 280.5149
ARG_OF_PERICENTER = 215.4674
MEAN_ANOMALY   = 144.5195

EPHEMERIS_TYPE = 0
CLASSIFICATION_TYPE = U
NORAD_CAT_ID   = 24298
ELEMENT_SET_NO = 999
REV_AT_EPOCH   = 51462
BSTAR          = .47287649E-4
MEAN_MOTION_DOT = .38E-6
MEAN_MOTION_DDOT = 0

CCSDS_OMM_VERS = 2.0
CREATION_DATE  = 
ORIGINATOR     = 

OBJECT_NAME    = ORBVIEW 2 (SEASTAR)
OBJECT_ID      = 1997-037A
CENTER_NAME    = EARTH
REF_FRAME      = TEME
TIME_SYSTEM    = UTC
MEAN_ELEMENT_THEORY = SGP/SGP4

EPOCH          = 2026-01-18T22:17:19.787136
MEAN_MOTION    = 14.35447829
ECCENTRICITY   = .00020304
INCLINATION    = 98.8486
RA_OF_ASC_NODE = 181.9460
ARG_OF_PERICENTER = 181.5322
MEAN_ANOMALY   = 178.5856

EPHEMERIS_TYPE = 0
CLASSIFICATION_TYPE = U
NORAD_CAT_ID   = 24883
ELEMENT_SET_NO = 999
REV_AT_EPOCH   = 50133
BSTAR          = .10529653E-3
MEAN_MOTION_DOT = .256E-5
MEAN_MOTION_DDOT = 0

