SL-16 R/B               
1 22566U 93016B   26018.95237951  .00000042  00000+0  45999-4 0  9993
2 22566  71.0089 319.6461 0008910  27.8282 332.3315 14.15293515695135
COSMOS 2242             
1 22626U 93024A   26018.88678687  .00001906  00000+0  16593-3 0  9993
2 22626  82.5210 314.3385 0017897 110.0704 250.2446 14.96287729772947
SL-16 R/B               
1 22803U 93059B   26018.71700597  .00000126  00000+0  86330-4 0  9996
2 22803  70.9910 116.5126 0019498 284.5045  75.3916 14.17222605672459
ARIANE 40 R/B           
1 22830U 93061H   26018.90896951  .00000186  00000+0  83991-4 0  9996
2 22830  98.5018  88.7531 0011719  74.1915 286.0561 14.32827387686975
COSMOS 2278             
1 23087U 94023A   26018.94935449  .00000054  00000+0  52886-4 0  9993
2 23087  71.0545 279.1632 0006469 109.6186 250.5636 14.14365496637770
SL-16 R/B               
1 23088U 94023B   26018.87701104  .00000028  00000+0  39232-4 0  9996
2 23088  70.9995 175.4963 0003647 333.3042  26.7893 14.15006560639040
SL-16 R/B               
1 23343U 94074B   26018.68388597  .00000425  00000+0  63704-4 0  9994
2 23343  97.7167  51.5140 0007329  35.0060  78.3228 14.79336878679856
SL-16 R/B               
1 23405U 94077B   26018.94873920  .00000138  00000+0  95183-4 0  9991
2 23405  70.9834  97.1373 0004823 255.4777 104.5811 14.15557156609196
ARIANE 40+ R/B          
1 23561U 95021B   26018.93993398  .00000269  00000+0  99687-4 0  9993
2 23561  98.4596  91.0714 0005696 294.1782 239.0576 14.39726829612081
SL-16 R/B               
1 23705U 95058B   26018.95325444 -.00000163  00000+0 -59192-4 0  9998
2 23705  71.0222 284.6763 0013468 205.8216 154.2236 14.15489699560814
SL-16 R/B               
1 24298U 96051B   26018.95349131  .00000038  00000+0  47288-4 0  9991
2 24298  70.7589 280.5149 0018827 215.4674 144.5195 14.12401452514628
ORBVIEW 2 (SEASTAR)     
1 24883U 97037A   26018.92870124  .00000256  00000+0  10530-3 0  9995
2 24883  98.8486 181.9460 0002030 181.5322 178.5856 14.35447829501335
